IRIDIUM 57              
1 25273U 98019B   24190.82857812  .00000516  00000+0  17353-3 0  9996
2 25273  86.3961 289.0560 0002209  95.1230 265.0218 14.35274486375527
IRIDIUM 63              
1 25286U 98021B   24190.84393418  .00000500  00000+0  16620-3 0  9991
2 25286  86.3981 225.9502 0002151  89.6526 270.4917 14.35824924374567
IRIDIUM 69              
1 25319U 98026A   24191.19614499  .00000575  00000+0  17607-3 0  9995
2 25319  86.3968 240.1219 0004572  83.9445 276.2275 14.40070459373921
IRIDIUM 71              
1 25320U 98026B   24190.84407419  .00000544  00000+0  16522-3 0  9991
2 25320  86.3970 235.0273 0004093 115.2544 244.9080 14.40379236374153
IRIDIUM 73              
1 25344U 98032C   24191.23733010  .00000732  00000+0  18144-3 0  9998
2 25344  86.4440 192.2777 0002968  87.2656 272.8889 14.50615659381121
IRIDIUM 82              
1 25467U 98051A   24191.20070442  .00017187  00000+0  84148-3 0  9994
2 25467  86.3738 275.3228 0127024 139.1949 221.8888 15.11118616371810
